{"type": "FeatureCollection", "features": [ {"type": "Feature", "properties": {"norad_id": 33841, "name": "COSMOS 2251 DEB", "group": "cosmos-2251-debris", "lat": -18.36389171080631, "lon": 78.7224890475533, "alt_km": 780.2636012062203, "timestamp": "2025-12-26T04:40:06.177661+00:00", "meta": {"OBJECT_NAME": "COSMOS 2251 DEB", "OBJECT_ID": "1993-036CJ", "EPOCH": "2025-12-25T19:45:59.556672", "MEAN_MOTION": 14.37878424, "ECCENTRICITY": 0.00210489, "INCLINATION": 74.0373, "RA_OF_ASC_NODE": 253.953, "ARG_OF_PERICENTER": 331.9844, "MEAN_ANOMALY": 108.0202, "EPHEMERIS_TYPE": 0, "CLASSIFICATION_TYPE": "U", "NORAD_CAT_ID": 33841, "ELEMENT_SET_NO": 999, "REV_AT_EPOCH": 88302, "BSTAR": 0.00021086639, "MEAN_MOTION_DOT": 6.11e-06, "MEAN_MOTION_DDOT": 0}, "tle": {"line1": "1 33841U 93036CJ  25359.82360598  .00000611  00000+0  21087-3 0  9993", "line2": "2 33841  74.0373 253.9530 0021048 331.9844 108.0202 14.37878424883021"}}, "geometry": {"type": "Point", "coordinates": [78.7224890475533, -18.36389171080631]}}, {"type": "Feature", "properties": {"norad_id": 33842, "name": "COSMOS 2251 DEB", "group": "cosmos-2251-debris", "lat": -30.328892824026724, "lon": -174.96604815805387, "alt_km": 725.4353485218771, "timestamp": "2025-12-26T04:40:06.177671+00:00", "meta": {"OBJECT_NAME": "COSMOS 2251 DEB", "OBJECT_ID": "1993-036CK", "EPOCH": "2025-12-25T22:09:25.799328", "MEAN_MOTION": 14.42721361, "ECCENTRICITY": 0.00476031, "INCLINATION": 74.0315, "RA_OF_ASC_NODE": 195.1808, "ARG_OF_PERICENTER": 299.9078, "MEAN_ANOMALY": 59.7354, "EPHEMERIS_TYPE": 0, "CLASSIFICATION_TYPE": "U", "NORAD_CAT_ID": 33842, "ELEMENT_SET_NO": 999, "REV_AT_EPOCH": 88527, "BSTAR": 0.00025366521, "MEAN_MOTION_DOT": 8.29e-06, "MEAN_MOTION_DDOT": 0}, "tle": {"line1": "1 33842U 93036CK  25359.92321527  .00000829  00000+0  25367-3 0  9990", "line2": "2 33842  74.0315 195.1808 0047603 299.9078  59.7354 14.42721361885272"}}, "geometry": {"type": "Point", "coordinates": [-174.96604815805387, -30.328892824026724]}}, {"type": "Feature", "properties": {"norad_id": 33844, "name": "COSMOS 2251 DEB", "group": "cosmos-2251-debris", "lat": -4.353268263234294, "lon": -150.5391464690594, "alt_km": 807.6595732903515, "timestamp": "2025-12-26T04:40:06.177682+00:00", "meta": {"OBJECT_NAME": "COSMOS 2251 DEB", "OBJECT_ID": "1993-036CM", "EPOCH": "2025-12-25T13:17:44.608992", "MEAN_MOTION": 14.33741262, "ECCENTRICITY": 0.004722, "INCLINATION": 74.0664, "RA_OF_ASC_NODE": 29.3837, "ARG_OF_PERICENTER": 47.2297, "MEAN_ANOMALY": 72.0893, "EPHEMERIS_TYPE": 0, "CLASSIFICATION_TYPE": "U", "NORAD_CAT_ID": 33844, "ELEMENT_SET_NO": 999, "REV_AT_EPOCH": 87909, "BSTAR": 0.00036056, "MEAN_MOTION_DOT": 9.89e-06, "MEAN_MOTION_DDOT": 0}, "tle": {"line1": "1 33844U 93036CM  25359.55398853  .00000989  00000+0  36056-3 0  9991", "line2": "2 33844  74.0664  29.3837 0047220  47.2297  72.0893 14.33741262879094"}}, "geometry": {"type": "Point", "coordinates": [-150.5391464690594, -4.353268263234294]}}, {"type": "Feature", "properties": {"norad_id": 33848, "name": "COSMOS 2251 DEB", "group": "cosmos-2251-debris", "lat": 32.49042886126506, "lon": 142.101019456351, "alt_km": 757.9608440610564, "timestamp": "2025-12-26T04:40:06.177692+00:00", "meta": {"OBJECT_NAME": "COSMOS 2251 DEB", "OBJECT_ID": "1993-036CR", "EPOCH": "2025-12-25T15:14:41.354304", "MEAN_MOTION": 14.44151779, "ECCENTRICITY": 0.0041938, "INCLINATION": 74.0324, "RA_OF_ASC_NODE": 333.6473, "ARG_OF_PERICENTER": 25.7702, "MEAN_ANOMALY": 93.0831, "EPHEMERIS_TYPE": 0, "CLASSIFICATION_TYPE": "U", "NORAD_CAT_ID": 33848, "ELEMENT_SET_NO": 999, "REV_AT_EPOCH": 88017, "BSTAR": 0.0012844, "MEAN_MOTION_DOT": 4.427e-05, "MEAN_MOTION_DDOT": 0}, "tle": {"line1": "1 33848U 93036CR  25359.63520086  .00004427  00000+0  12844-2 0  9998", "line2": "2 33848  74.0324 333.6473 0041938  25.7702  93.0831 14.44151779880176"}}, "geometry": {"type": "Point", "coordinates": [142.101019456351, 32.49042886126506]}}, {"type": "Feature", "properties": {"norad_id": 33892, "name": "COSMOS 2251 DEB", "group": "cosmos-2251-debris", "lat": 31.225399036346698, "lon": -112.63633591103886, "alt_km": 750.689220401533, "timestamp": "2025-12-26T04:40:06.177702+00:00", "meta": {"OBJECT_NAME": "COSMOS 2251 DEB", "OBJECT_ID": "1993-036CV", "EPOCH": "2025-12-25T08:03:07.750368", "MEAN_MOTION": 14.23378094, "ECCENTRICITY": 0.0112112, "INCLINATION": 73.8025, "RA_OF_ASC_NODE": 79.0793, "ARG_OF_PERICENTER": 107.8295, "MEAN_ANOMALY": 318.5772, "EPHEMERIS_TYPE": 0, "CLASSIFICATION_TYPE": "U", "NORAD_CAT_ID": 33892, "ELEMENT_SET_NO": 999, "REV_AT_EPOCH": 87134, "BSTAR": 0.00060646, "MEAN_MOTION_DOT": 1.442e-05, "MEAN_MOTION_DDOT": 0}, "tle": {"line1": "1 33892U 93036CV  25359.33550637  .00001442  00000+0  60646-3 0  9997", "line2": "2 33892  73.8025  79.0793 0112112 107.8295 318.5772 14.23378094871344"}}, "geometry": {"type": "Point", "coordinates": [-112.63633591103886, 31.225399036346698]}}, {"type": "Feature", "properties": {"norad_id": 33894, "name": "COSMOS 2251 DEB", "group": "cosmos-2251-debris", "lat": 26.190782275081176, "lon": 140.02002277350752, "alt_km": 1178.519663056105, "timestamp": "2025-12-26T04:40:06.177712+00:00", "meta": {"OBJECT_NAME": "COSMOS 2251 DEB", "OBJECT_ID": "1993-036CX", "EPOCH": "2025-12-25T15:06:55.116576", "MEAN_MOTION": 13.2132861, "ECCENTRICITY": 0.0578594, "INCLINATION": 73.7663, "RA_OF_ASC_NODE": 329.132, "ARG_OF_PERICENTER": 246.8452, "MEAN_ANOMALY": 107.0692, "EPHEMERIS_TYPE": 0, "CLASSIFICATION_TYPE": "U", "NORAD_CAT_ID": 33894, "ELEMENT_SET_NO": 999, "REV_AT_EPOCH": 80878, "BSTAR": 0.00061723, "MEAN_MOTION_DOT": 5.9e-06, "MEAN_MOTION_DDOT": 0}, "tle": {"line1": "1 33894U 93036CX  25359.62980459  .00000590  00000+0  61723-3 0  9990", "line2": "2 33894  73.7663 329.1320 0578594 246.8452 107.0692 13.21328610808783"}}, "geometry": {"type": "Point", "coordinates": [140.02002277350752, 26.190782275081176]}}, {"type": "Feature", "properties": {"norad_id": 33896, "name": "COSMOS 2251 DEB", "group": "cosmos-2251-debris", "lat": 7.980728474411823, "lon": 134.5972983426171, "alt_km": 786.929542618569, "timestamp": "2025-12-26T04:40:06.177722+00:00", "meta": {"OBJECT_NAME": "COSMOS 2251 DEB", "OBJECT_ID": "1993-036CZ", "EPOCH": "2025-12-25T15:10:08.224896", "MEAN_MOTION": 14.19068816, "ECCENTRICITY": 0.0127213, "INCLINATION": 73.7666, "RA_OF_ASC_NODE": 133.2772, "ARG_OF_PERICENTER": 306.8958, "MEAN_ANOMALY": 67.8616, "EPHEMERIS_TYPE": 0, "CLASSIFICATION_TYPE": "U", "NORAD_CAT_ID": 33896, "ELEMENT_SET_NO": 999, "REV_AT_EPOCH": 86923, "BSTAR": 0.00066526, "MEAN_MOTION_DOT": 1.479e-05, "MEAN_MOTION_DDOT": 0}, "tle": {"line1": "1 33896U 93036CZ  25359.63203964  .00001479  00000+0  66526-3 0  9995", "line2": "2 33896  73.7666 133.2772 0127213 306.8958  67.8616 14.19068816869232"}}, "geometry": {"type": "Point", "coordinates": [134.5972983426171, 7.980728474411823]}}, {"type": "Feature", "properties": {"norad_id": 33899, "name": "COSMOS 2251 DEB", "group": "cosmos-2251-debris", "lat": -73.952799742782, "lon": -36.21873515983639, "alt_km": 729.975700594242, "timestamp": "2025-12-26T04:40:06.177732+00:00", "meta": {"OBJECT_NAME": "COSMOS 2251 DEB", "OBJECT_ID": "1993-036DC", "EPOCH": "2025-12-25T04:34:52.061376", "MEAN_MOTION": 14.61291008, "ECCENTRICITY": 0.00559701, "INCLINATION": 74.0532, "RA_OF_ASC_NODE": 61.9432, "ARG_OF_PERICENTER": 120.9342, "MEAN_ANOMALY": 269.4, "EPHEMERIS_TYPE": 0, "CLASSIFICATION_TYPE": "U", "NORAD_CAT_ID": 33899, "ELEMENT_SET_NO": 999, "REV_AT_EPOCH": 89021, "BSTAR": 0.00082401732, "MEAN_MOTION_DOT": 4.131e-05, "MEAN_MOTION_DDOT": 0}, "tle": {"line1": "1 33899U 93036DC  25359.19088034  .00004131  00000+0  82402-3 0  9997", "line2": "2 33899  74.0532  61.9432 0055970 120.9342 269.4000 14.61291008890210"}}, "geometry": {"type": "Point", "coordinates": [-36.21873515983639, -73.952799742782]}}, {"type": "Feature", "properties": {"norad_id": 33900, "name": "COSMOS 2251 DEB", "group": "cosmos-2251-debris", "lat": 14.689739409797872, "lon": 149.91861656729557, "alt_km": 674.5521598886298, "timestamp": "2025-12-26T04:40:06.177742+00:00", "meta": {"OBJECT_NAME": "COSMOS 2251 DEB", "OBJECT_ID": "1993-036DD", "EPOCH": "2025-12-25T08:50:54.447072", "MEAN_MOTION": 14.58390981, "ECCENTRICITY": 0.0046325, "INCLINATION": 74.0196, "RA_OF_ASC_NODE": 335.7997, "ARG_OF_PERICENTER": 124.1586, "MEAN_ANOMALY": 26.0739, "EPHEMERIS_TYPE": 0, "CLASSIFICATION_TYPE": "U", "NORAD_CAT_ID": 33900, "ELEMENT_SET_NO": 999, "REV_AT_EPOCH": 89220, "BSTAR": 0.00043405, "MEAN_MOTION_DOT": 2.012e-05, "MEAN_MOTION_DDOT": 0}, "tle": {"line1": "1 33900U 93036DD  25359.36868573  .00002012  00000+0  43405-3 0  9999", "line2": "2 33900  74.0196 335.7997 0046325 124.1586  26.0739 14.58390981892200"}}, "geometry": {"type": "Point", "coordinates": [149.91861656729557, 14.689739409797872]}}, {"type": "Feature", "properties": {"norad_id": 33901, "name": "COSMOS 2251 DEB", "group": "cosmos-2251-debris", "lat": 72.84394097617292, "lon": 91.40368164222609, "alt_km": 498.2084170082071, "timestamp": "2025-12-26T04:40:06.177753+00:00", "meta": {"OBJECT_NAME": "COSMOS 2251 DEB", "OBJECT_ID": "1993-036DE", "EPOCH": "2025-12-25T12:28:22.218240", "MEAN_MOTION": 15.17250961, "ECCENTRICITY": 0.0029794, "INCLINATION": 73.7744, "RA_OF_ASC_NODE": 22.2172, "ARG_OF_PERICENTER": 152.012, "MEAN_ANOMALY": 208.2685, "EPHEMERIS_TYPE": 0, "CLASSIFICATION_TYPE": "U", "NORAD_CAT_ID": 33901, "ELEMENT_SET_NO": 999, "REV_AT_EPOCH": 89707, "BSTAR": 0.0024799, "MEAN_MOTION_DOT": 0.00050239, "MEAN_MOTION_DDOT": 0}, "tle": {"line1": "1 33901U 93036DE  25359.51970160  .00050239  00000+0  24799-2 0  9991", "line2": "2 33901  73.7744  22.2172 0029794 152.0120 208.2685 15.17250961897077"}}, "geometry": {"type": "Point", "coordinates": [91.40368164222609, 72.84394097617292]}}]}